IRIDIUM 7               
1 24793U 97020B   24346.98755671  .00000760  00000+0  25681-3 0  9997
2 24793  86.3962 255.3109 0002300  76.1669 283.9783 14.35656444445258
IRIDIUM 5               
1 24795U 97020D   24346.84688693  .00006355  00000+0  55439-3 0  9993
2 24795  86.3917 169.8871 0116899  89.4309 272.0312 14.91441685457512
IRIDIUM 4               
1 24796U 97020E   24346.81061758  .00000794  00000+0  26387-3 0  9999
2 24796  86.3960 252.3837 0002315  82.2203 277.9257 14.36569837445565
IRIDIUM 914             
1 24836U 97030A   24347.26381725  .00000997  00000+0  30711-3 0  9995
2 24836  86.3935 261.3619 0003808  97.3840 262.7792 14.40527338442313
IRIDIUM 16              
1 24841U 97030F   24347.08390869  .00000944  00000+0  30344-3 0  9994
2 24841  86.4021 283.8894 0002121  24.5612 335.5687 14.38389735440365
IRIDIUM 911             
1 24842U 97030G   24347.11596941  .00001357  00000+0  36609-3 0  9997
2 24842  86.4445 282.8369 0014769  10.9335 349.2186 14.47191473448009
IRIDIUM 17              
1 24870U 97034B   24347.37316410  .00001023  00000+0  33555-3 0  9998
2 24870  86.3944 313.3381 0000664  85.7273 274.4001 14.37491744436743
IRIDIUM 920             
1 24871U 97034C   24347.13216320  .00001045  00000+0  31765-3 0  9997
2 24871  86.3957 293.0869 0011162 350.9824   9.1173 14.41197881439899
